CCSDS_OMM_VERS = 2.0
CREATION_DATE  = 
ORIGINATOR     = 

OBJECT_NAME    = STARLINK-36655
OBJECT_ID      = 2026-033P
CENTER_NAME    = EARTH
REF_FRAME      = TEME
TIME_SYSTEM    = UTC
MEAN_ELEMENT_THEORY = SGP/SGP4

EPOCH          = 2026-03-11T22:00:00.999936
MEAN_MOTION    = 15.79285555
ECCENTRICITY   = .00014216
INCLINATION    = 42.9994
RA_OF_ASC_NODE = 257.7592
ARG_OF_PERICENTER = 286.7495
MEAN_ANOMALY   = 193.8573

EPHEMERIS_TYPE = 0
CLASSIFICATION_TYPE = U
NORAD_CAT_ID   = 67834
ELEMENT_SET_NO = 999
REV_AT_EPOCH   = 502
BSTAR          = -.11561147E-1
MEAN_MOTION_DOT = -.1874768E-1
MEAN_MOTION_DDOT = 0

CCSDS_OMM_VERS = 2.0
CREATION_DATE  = 
ORIGINATOR     = 

OBJECT_NAME    = STARLINK-36657
OBJECT_ID      = 2026-033Q
CENTER_NAME    = EARTH
REF_FRAME      = TEME
TIME_SYSTEM    = UTC
MEAN_ELEMENT_THEORY = SGP/SGP4

EPOCH          = 2026-03-10T21:12:54.412704
MEAN_MOTION    = 15.82980376
ECCENTRICITY   = .0003179
INCLINATION    = 42.9975
RA_OF_ASC_NODE = 264.0647
ARG_OF_PERICENTER = 271.1022
MEAN_ANOMALY   = 88.9486

EPHEMERIS_TYPE = 0
CLASSIFICATION_TYPE = U
NORAD_CAT_ID   = 67835
ELEMENT_SET_NO = 999
REV_AT_EPOCH   = 481
BSTAR          = .40248E-2
MEAN_MOTION_DOT = .995188E-2
MEAN_MOTION_DDOT = 0

CCSDS_OMM_VERS = 2.0
CREATION_DATE  = 
ORIGINATOR     = 

OBJECT_NAME    = STARLINK-36650
OBJECT_ID      = 2026-033R
CENTER_NAME    = EARTH
REF_FRAME      = TEME
TIME_SYSTEM    = UTC
MEAN_ELEMENT_THEORY = SGP/SGP4

EPOCH          = 2026-03-11T22:00:00.999936
MEAN_MOTION    = 15.74949116
ECCENTRICITY   = .00014173
INCLINATION    = 42.9993
RA_OF_ASC_NODE = 257.7834
ARG_OF_PERICENTER = 282.9277
MEAN_ANOMALY   = 187.9777

EPHEMERIS_TYPE = 0
CLASSIFICATION_TYPE = U
NORAD_CAT_ID   = 67836
ELEMENT_SET_NO = 999
REV_AT_EPOCH   = 502
BSTAR          = -.14009494E-1
MEAN_MOTION_DOT = -.1868854E-1
MEAN_MOTION_DDOT = 0

CCSDS_OMM_VERS = 2.0
CREATION_DATE  = 
ORIGINATOR     = 

OBJECT_NAME    = STARLINK-36649
OBJECT_ID      = 2026-033S
CENTER_NAME    = EARTH
REF_FRAME      = TEME
TIME_SYSTEM    = UTC
MEAN_ELEMENT_THEORY = SGP/SGP4

EPOCH          = 2026-03-11T12:20:17.687040
MEAN_MOTION    = 15.81687853
ECCENTRICITY   = .00052689
INCLINATION    = 42.9976
RA_OF_ASC_NODE = 260.1863
ARG_OF_PERICENTER = 217.1303
MEAN_ANOMALY   = 142.9205

EPHEMERIS_TYPE = 0
CLASSIFICATION_TYPE = U
NORAD_CAT_ID   = 67837
ELEMENT_SET_NO = 999
REV_AT_EPOCH   = 491
BSTAR          = .23055161E-2
MEAN_MOTION_DOT = .506791E-2
MEAN_MOTION_DDOT = 0

CCSDS_OMM_VERS = 2.0
CREATION_DATE  = 
ORIGINATOR     = 

OBJECT_NAME    = STARLINK-36654
OBJECT_ID      = 2026-033T
CENTER_NAME    = EARTH
REF_FRAME      = TEME
TIME_SYSTEM    = UTC
MEAN_ELEMENT_THEORY = SGP/SGP4

EPOCH          = 2026-03-11T22:00:00.999936
MEAN_MOTION    = 15.76849037
ECCENTRICITY   = .00015235
INCLINATION    = 42.9994
RA_OF_ASC_NODE = 257.7360
ARG_OF_PERICENTER = 280.0971
MEAN_ANOMALY   = 209.3457

EPHEMERIS_TYPE = 0
CLASSIFICATION_TYPE = U
NORAD_CAT_ID   = 67838
ELEMENT_SET_NO = 999
REV_AT_EPOCH   = 502
BSTAR          = -.12881796E-1
MEAN_MOTION_DOT = -.187028E-1
MEAN_MOTION_DDOT = 0

CCSDS_OMM_VERS = 2.0
CREATION_DATE  = 
ORIGINATOR     = 

OBJECT_NAME    = STARLINK-36652
OBJECT_ID      = 2026-033U
CENTER_NAME    = EARTH
REF_FRAME      = TEME
TIME_SYSTEM    = UTC
MEAN_ELEMENT_THEORY = SGP/SGP4

EPOCH          = 2026-03-11T22:00:00.999936
MEAN_MOTION    = 15.75475931
ECCENTRICITY   = .00018739
INCLINATION    = 42.9993
RA_OF_ASC_NODE = 257.7478
ARG_OF_PERICENTER = 265.5881
MEAN_ANOMALY   = 219.3086

EPHEMERIS_TYPE = 0
CLASSIFICATION_TYPE = U
NORAD_CAT_ID   = 67839
ELEMENT_SET_NO = 999
REV_AT_EPOCH   = 502
BSTAR          = -.17929031E-1
MEAN_MOTION_DOT = -.2412178E-1
MEAN_MOTION_DDOT = 0

CCSDS_OMM_VERS = 2.0
CREATION_DATE  = 
ORIGINATOR     = 

OBJECT_NAME    = STARLINK-36651
OBJECT_ID      = 2026-033V
CENTER_NAME    = EARTH
REF_FRAME      = TEME
TIME_SYSTEM    = UTC
MEAN_ELEMENT_THEORY = SGP/SGP4

EPOCH          = 2026-03-11T22:00:00.999936
MEAN_MOTION    = 15.76673856
ECCENTRICITY   = .00015557
INCLINATION    = 42.9994
RA_OF_ASC_NODE = 257.7167
ARG_OF_PERICENTER = 281.9419
MEAN_ANOMALY   = 215.2389

EPHEMERIS_TYPE = 0
CLASSIFICATION_TYPE = U
NORAD_CAT_ID   = 67840
ELEMENT_SET_NO = 999
REV_AT_EPOCH   = 502
BSTAR          = -.13015032E-1
MEAN_MOTION_DOT = -.1874233E-1
MEAN_MOTION_DDOT = 0

CCSDS_OMM_VERS = 2.0
CREATION_DATE  = 
ORIGINATOR     = 

OBJECT_NAME    = STARLINK-36656
OBJECT_ID      = 2026-033W
CENTER_NAME    = EARTH
REF_FRAME      = TEME
TIME_SYSTEM    = UTC
MEAN_ELEMENT_THEORY = SGP/SGP4

EPOCH          = 2026-03-11T00:08:27.991392
MEAN_MOTION    = 15.82024668
ECCENTRICITY   = .00022628
INCLINATION    = 42.9980
RA_OF_ASC_NODE = 263.2558
ARG_OF_PERICENTER = 260.6473
MEAN_ANOMALY   = 99.4143

EPHEMERIS_TYPE = 0
CLASSIFICATION_TYPE = U
NORAD_CAT_ID   = 67841
ELEMENT_SET_NO = 999
REV_AT_EPOCH   = 483
BSTAR          = .78297225E-3
MEAN_MOTION_DOT = .167638E-2
MEAN_MOTION_DDOT = 0

CCSDS_OMM_VERS = 2.0
CREATION_DATE  = 
ORIGINATOR     = 

OBJECT_NAME    = STARLINK-36653
OBJECT_ID      = 2026-033X
CENTER_NAME    = EARTH
REF_FRAME      = TEME
TIME_SYSTEM    = UTC
MEAN_ELEMENT_THEORY = SGP/SGP4

EPOCH          = 2026-03-11T22:00:00.999936
MEAN_MOTION    = 15.76769626
ECCENTRICITY   = .00015187
INCLINATION    = 42.9994
RA_OF_ASC_NODE = 257.6943
ARG_OF_PERICENTER = 280.5800
MEAN_ANOMALY   = 225.5704

EPHEMERIS_TYPE = 0
CLASSIFICATION_TYPE = U
NORAD_CAT_ID   = 67842
ELEMENT_SET_NO = 999
REV_AT_EPOCH   = 502
BSTAR          = -.13001741E-1
MEAN_MOTION_DOT = -.1879552E-1
MEAN_MOTION_DDOT = 0

CCSDS_OMM_VERS = 2.0
CREATION_DATE  = 
ORIGINATOR     = 

OBJECT_NAME    = STARLINK-36589
OBJECT_ID      = 2026-033Y
CENTER_NAME    = EARTH
REF_FRAME      = TEME
TIME_SYSTEM    = UTC
MEAN_ELEMENT_THEORY = SGP/SGP4

EPOCH          = 2026-03-11T22:00:00.999936
MEAN_MOTION    = 15.77818261
ECCENTRICITY   = .00013141
INCLINATION    = 42.9994
RA_OF_ASC_NODE = 257.6731
ARG_OF_PERICENTER = 272.8084
MEAN_ANOMALY   = 241.8610

EPHEMERIS_TYPE = 0
CLASSIFICATION_TYPE = U
NORAD_CAT_ID   = 67843
ELEMENT_SET_NO = 999
REV_AT_EPOCH   = 502
BSTAR          = -.12411476E-1
MEAN_MOTION_DOT = -.1880908E-1
MEAN_MOTION_DDOT = 0

CCSDS_OMM_VERS = 2.0
CREATION_DATE  = 
ORIGINATOR     = 

OBJECT_NAME    = STARLINK-36598
OBJECT_ID      = 2026-033Z
CENTER_NAME    = EARTH
REF_FRAME      = TEME
TIME_SYSTEM    = UTC
MEAN_ELEMENT_THEORY = SGP/SGP4

EPOCH          = 2026-03-11T22:00:00.999936
MEAN_MOTION    = 15.74593126
ECCENTRICITY   = .00015534
INCLINATION    = 42.9994
RA_OF_ASC_NODE = 257.7025
ARG_OF_PERICENTER = 280.0377
MEAN_ANOMALY   = 222.8291

EPHEMERIS_TYPE = 0
CLASSIFICATION_TYPE = U
NORAD_CAT_ID   = 67844
ELEMENT_SET_NO = 999
REV_AT_EPOCH   = 502
BSTAR          = -.14239743E-1
MEAN_MOTION_DOT = -.1869936E-1
MEAN_MOTION_DDOT = 0

CCSDS_OMM_VERS = 2.0
CREATION_DATE  = 
ORIGINATOR     = 

OBJECT_NAME    = STARLINK-36606
OBJECT_ID      = 2026-033AA
CENTER_NAME    = EARTH
REF_FRAME      = TEME
TIME_SYSTEM    = UTC
MEAN_ELEMENT_THEORY = SGP/SGP4

EPOCH          = 2026-03-11T21:16:57.015264
MEAN_MOTION    = 15.82263886
ECCENTRICITY   = .00055015
INCLINATION    = 42.9991
RA_OF_ASC_NODE = 257.8119
ARG_OF_PERICENTER = 294.2343
MEAN_ANOMALY   = 65.7954

EPHEMERIS_TYPE = 0
CLASSIFICATION_TYPE = U
NORAD_CAT_ID   = 67845
ELEMENT_SET_NO = 999
REV_AT_EPOCH   = 497
BSTAR          = .16736843E-2
MEAN_MOTION_DOT = .371919E-2
MEAN_MOTION_DDOT = 0

CCSDS_OMM_VERS = 2.0
CREATION_DATE  = 
ORIGINATOR     = 

OBJECT_NAME    = STARLINK-36658
OBJECT_ID      = 2026-033AB
CENTER_NAME    = EARTH
REF_FRAME      = TEME
TIME_SYSTEM    = UTC
MEAN_ELEMENT_THEORY = SGP/SGP4

EPOCH          = 2026-03-11T22:00:00.999936
MEAN_MOTION    = 15.75056877
ECCENTRICITY   = .00014463
INCLINATION    = 42.9994
RA_OF_ASC_NODE = 257.6738
ARG_OF_PERICENTER = 283.1694
MEAN_ANOMALY   = 231.0925

EPHEMERIS_TYPE = 0
CLASSIFICATION_TYPE = U
NORAD_CAT_ID   = 67846
ELEMENT_SET_NO = 999
REV_AT_EPOCH   = 502
BSTAR          = -.14011499E-1
MEAN_MOTION_DOT = -.1876857E-1
MEAN_MOTION_DDOT = 0

CCSDS_OMM_VERS = 2.0
CREATION_DATE  = 
ORIGINATOR     = 

OBJECT_NAME    = STARLINK-36618
OBJECT_ID      = 2026-033AC
CENTER_NAME    = EARTH
REF_FRAME      = TEME
TIME_SYSTEM    = UTC
MEAN_ELEMENT_THEORY = SGP/SGP4

EPOCH          = 2026-03-11T22:00:00.999936
MEAN_MOTION    = 15.91308939
ECCENTRICITY   = .00016579
INCLINATION    = 42.9807
RA_OF_ASC_NODE = 255.2040
ARG_OF_PERICENTER = 296.4242
MEAN_ANOMALY   = 110.7609

EPHEMERIS_TYPE = 0
CLASSIFICATION_TYPE = U
NORAD_CAT_ID   = 67847
ELEMENT_SET_NO = 999
REV_AT_EPOCH   = 502
BSTAR          = .9906006E-3
MEAN_MOTION_DOT = .326604E-2
MEAN_MOTION_DDOT = .47861479E-4

CCSDS_OMM_VERS = 2.0
CREATION_DATE  = 
ORIGINATOR     = 

OBJECT_NAME    = STARLINK-36660
OBJECT_ID      = 2026-033AD
CENTER_NAME    = EARTH
REF_FRAME      = TEME
TIME_SYSTEM    = UTC
MEAN_ELEMENT_THEORY = SGP/SGP4

EPOCH          = 2026-03-11T22:00:00.999936
MEAN_MOTION    = 15.73611668
ECCENTRICITY   = .00014347
INCLINATION    = 42.9994
RA_OF_ASC_NODE = 257.6864
ARG_OF_PERICENTER = 277.7233
MEAN_ANOMALY   = 231.2466

EPHEMERIS_TYPE = 0
CLASSIFICATION_TYPE = U
NORAD_CAT_ID   = 67848
ELEMENT_SET_NO = 999
REV_AT_EPOCH   = 502
BSTAR          = -.14934804E-1
MEAN_MOTION_DOT = -.1877335E-1
MEAN_MOTION_DDOT = 0

